{"fetched_at":"2026-03-30T06:02:59Z","count":15439,"tles":[{"name":"STARLINK-32340","line1":"1 61008U 24158U   26087.92599485  .00005075  00000+0  18330-3 0  9993","line2":"2 61008  53.1600 336.3049 0001228  92.2509 267.8632 15.30208451 88526","category":"Starlink"}]}